SENTINEL-6              
1 46984U 20086A   23277.43990331 -.00000052  00000+0  40033-4 0  9991
2 46984  66.0443  24.5348 0007851 268.0084  92.0032 12.80929911134074
